FLOCK 3P-82             
1 42046U 17008DC  17345.87861800  .00002673  00000-0  11399-3 0  9994
2 42046  97.4777  46.7725 0006952 298.2658  61.7877 15.23804175 44811
